OBJECT_NAME,OBJECT_ID,EPOCH,MEAN_MOTION,ECCENTRICITY,INCLINATION,RA_OF_ASC_NODE,ARG_OF_PERICENTER,MEAN_ANOMALY,EPHEMERIS_TYPE,CLASSIFICATION_TYPE,NORAD_CAT_ID,ELEMENT_SET_NO,REV_AT_EPOCH,BSTAR,MEAN_MOTION_DOT,MEAN_MOTION_DDOT
KUIPER-00116,2025-171X,2026-06-04T03:11:48.556896,14.79931126,.00008193,51.8990,150.8768,27.2037,332.8969,0,U,65153,999,4547,.16993582E-3,.1074E-4,0
KUIPER-00118,2025-171Y,2026-06-03T07:40:58.604736,14.79935834,.00004809,51.8950,156.9135,92.0413,268.0604,0,U,65154,999,4532,.27570965E-3,.1881E-4,0
KUIPER-00119,2025-171Z,2026-06-03T06:23:09.354336,14.79954483,.0000922,51.8985,144.7429,112.1262,247.9798,0,U,65155,999,4548,.48319E-3,.3466E-4,0
METOP-SGA1,2025-172A,2026-06-04T02:48:33.624576,14.21507560,.00010003,98.6648,215.0827,84.9916,275.1375,0,U,65159,999,4193,.50485553E-4,.67E-6,0
HULIANWANG DIGUI-58,2025-174A,2026-06-04T06:31:46.929216,13.24404920,.00018567,86.4966,256.3667,95.4456,264.6890,0,U,65164,999,3908,.70647779E-4,.45E-6,0
HULIANWANG DIGUI-59,2025-174B,2026-06-04T06:42:43.219296,13.24405024,.00018441,86.4926,256.2595,98.7989,261.3353,0,U,65165,999,3908,.11338156E-3,.63E-6,0
HULIANWANG DIGUI-60,2025-174C,2026-06-04T06:53:33.127008,13.24404548,.00017936,86.4958,256.3542,95.2639,264.8700,0,U,65166,999,3908,.10792422E-3,.61E-6,0
HULIANWANG DIGUI-61,2025-174D,2026-06-04T07:04:29.171712,13.24405133,.00019338,86.4967,256.3817,91.5697,268.5658,0,U,65167,999,3908,.12882329E-3,.7E-6,0
HULIANWANG DIGUI-62,2025-174E,2026-06-04T07:15:15.929280,13.24406590,.0001779,86.4908,256.2173,91.4895,268.6443,0,U,65168,999,3908,.1276673E-3,.69E-6,0
HULIANWANG DIGUI-63,2025-174F,2026-06-04T07:25:46.972416,13.24400990,.0001849,86.4961,256.3702,88.9485,271.1861,0,U,65169,999,3908,.15818669E-3,.83E-6,0
HULIANWANG DIGUI-64,2025-174G,2026-06-04T07:37:04.346688,13.24404962,.00017556,86.4920,256.2571,93.4795,266.6539,0,U,65170,999,3908,.10685679E-3,.61E-6,0
HULIANWANG DIGUI-65,2025-174H,2026-06-04T07:58:45.600672,13.24405017,.00019342,86.4884,256.1594,93.3001,266.8354,0,U,65171,999,3908,.53290178E-4,.38E-6,0
HULIANWANG DIGUI-66,2025-174J,2026-06-04T07:47:55.540032,13.24404715,.0001799,86.4919,256.2589,95.2143,264.9196,0,U,65172,999,3908,.88217252E-4,.53E-6,0
HULIANWANG DIGUI-67,2025-174K,2026-06-04T06:20:54.732768,13.24406183,.00018549,86.4931,256.3231,95.4512,264.6834,0,U,65173,999,3904,.41347196E-4,.32E-6,0
STARLINK-34956,2025-175A,2026-06-04T01:45:08.508096,15.05663883,.00013344,97.4080,27.1212,81.4976,278.6403,0,U,65174,999,4560,.45310529E-3,.6488E-4,0
STARLINK-34949,2025-175B,2026-06-04T01:41:09.421152,15.05662576,.0002406,97.4087,27.1252,87.5693,272.5810,0,U,65175,999,4564,.42235563E-3,.6043E-4,0
STARLINK-34707,2025-175C,2026-06-03T14:27:16.270560,15.05653121,.00016035,97.4099,26.6814,86.6002,273.5408,0,U,65176,999,4556,.4531658E-3,.6487E-4,0
STARLINK-34967,2025-175D,2026-06-04T03:08:54.536064,15.05652860,.00062056,97.4106,27.1951,51.9148,308.2638,0,U,65177,999,4564,.97288049E-3,.14013E-3,0
STARLINK-34929,2025-175E,2026-06-04T03:04:53.781600,15.05659719,.00015651,97.4114,27.2068,91.4843,268.6564,0,U,65178,999,4564,.35080339E-3,.5008E-4,0
STARLINK-34932,2025-175F,2026-06-04T02:56:55.415904,15.05665238,.00015624,97.4094,27.2150,55.8651,304.2725,0,U,65179,999,4564,.58691375E-3,.8424E-4,0
STARLINK-34862,2025-175G,2026-06-04T02:52:56.219232,15.05661829,.00017701,97.4098,27.2169,74.9961,285.1462,0,U,65180,999,4564,.48211538E-3,.6907E-4,0
STARLINK-34942,2025-175H,2026-06-04T03:00:54.570240,15.05661171,.00017007,97.4090,27.2063,92.7718,267.3704,0,U,65181,999,4561,.39707275E-3,.5677E-4,0
STARLINK-34944,2025-175J,2026-06-04T02:48:57.116736,15.05654666,.00020462,97.4099,27.2208,80.7150,279.4309,0,U,65182,999,4564,.36936806E-3,.5276E-4,0
STARLINK-34939,2025-175K,2026-06-04T02:44:57.926976,15.05657275,.00024244,97.4108,27.2247,85.3145,274.8359,0,U,65183,999,4561,.23506563E-3,.3336E-4,0
STARLINK-34947,2025-175L,2026-06-04T02:40:58.491840,15.05661881,.0001955,97.4103,27.2272,92.9962,267.1489,0,U,65184,999,4564,.32527746E-3,.464E-4,0
STARLINK-34945,2025-175M,2026-06-04T02:36:59.334912,15.05662009,.00024014,97.4106,27.2325,105.7693,254.3799,0,U,65185,999,4564,.36065495E-3,.5151E-4,0
STARLINK-34965,2025-175N,2026-06-04T02:29:01.281120,15.05660655,.00032556,97.4087,27.2387,76.0774,284.0815,0,U,65186,999,4564,.31460613E-3,.4486E-4,0
STARLINK-34915,2025-175P,2026-06-04T02:33:01.045440,15.05676760,.0002628,97.4078,27.2323,91.0323,269.1206,0,U,65187,999,4564,.52473043E-3,.7527E-4,0
STARLINK-34972,2025-175Q,2026-06-04T02:25:01.879680,15.05660821,.00023887,97.4071,27.2386,81.1812,278.9685,0,U,65188,999,4561,.39430955E-3,.5638E-4,0
STARLINK-34866,2025-175R,2026-06-04T07:08:08.821248,15.05654762,.00030233,97.4047,27.4321,84.4270,275.7303,0,U,65189,999,4567,.35460702E-3,.5063E-4,0
