KUIPER-00116            
1 65153U 25171X   26155.13320089  .00001074  00000+0  16994-3 0  9994
2 65153  51.8990 150.8768 0000819  27.2037 332.8969 14.79931126 45471
KUIPER-00118            
1 65154U 25171Y   26154.32012274  .00001881  00000+0  27571-3 0  9998
2 65154  51.8950 156.9135 0000480  92.0413 268.0604 14.79935834 45325
KUIPER-00119            
1 65155U 25171Z   26154.26608049  .00003466  00000+0  48319-3 0  9997
2 65155  51.8985 144.7429 0000922 112.1262 247.9798 14.79954483 45480
METOP-SGA1              
1 65159U 25172A   26155.11705584  .00000067  00000+0  50486-4 0  9992
2 65159  98.6648 215.0827 0001000  84.9916 275.1375 14.21507560 41930
HULIANWANG DIGUI-58     
1 65164U 25174A   26155.27207094  .00000045  00000+0  70648-4 0  9998
2 65164  86.4966 256.3667 0001856  95.4456 264.6890 13.24404920 39085
HULIANWANG DIGUI-59     
1 65165U 25174B   26155.27966689  .00000063  00000+0  11338-3 0  9991
2 65165  86.4926 256.2595 0001844  98.7989 261.3353 13.24405024 39089
HULIANWANG DIGUI-60     
1 65166U 25174C   26155.28718897  .00000061  00000+0  10792-3 0  9990
2 65166  86.4958 256.3542 0001793  95.2639 264.8700 13.24404548 39089
HULIANWANG DIGUI-61     
1 65167U 25174D   26155.29478208  .00000070  00000+0  12882-3 0  9993
2 65167  86.4967 256.3817 0001933  91.5697 268.5658 13.24405133 39088
HULIANWANG DIGUI-62     
1 65168U 25174E   26155.30226770  .00000069  00000+0  12767-3 0  9991
2 65168  86.4908 256.2173 0001779  91.4895 268.6443 13.24406590 39086
HULIANWANG DIGUI-63     
1 65169U 25174F   26155.30957144  .00000083  00000+0  15819-3 0  9995
2 65169  86.4961 256.3702 0001849  88.9485 271.1861 13.24400990 39080
HULIANWANG DIGUI-64     
1 65170U 25174G   26155.31741142  .00000061  00000+0  10686-3 0  9990
2 65170  86.4920 256.2571 0001755  93.4795 266.6539 13.24404962 39085
HULIANWANG DIGUI-65     
1 65171U 25174H   26155.33247223  .00000038  00000+0  53290-4 0  9997
2 65171  86.4884 256.1594 0001934  93.3001 266.8354 13.24405017 39086
HULIANWANG DIGUI-66     
1 65172U 25174J   26155.32494838  .00000053  00000+0  88217-4 0  9997
2 65172  86.4919 256.2589 0001799  95.2143 264.9196 13.24404715 39085
HULIANWANG DIGUI-67     
1 65173U 25174K   26155.26452237  .00000032  00000+0  41347-4 0  9998
2 65173  86.4931 256.3231 0001854  95.4512 264.6834 13.24406183 39042
STARLINK-34956          
1 65174U 25175A   26155.07301514  .00006488  00000+0  45311-3 0  9995
2 65174  97.4080  27.1212 0001334  81.4976 278.6403 15.05663883 45604
STARLINK-34949          
1 65175U 25175B   26155.07024793  .00006043  00000+0  42236-3 0  9997
2 65175  97.4087  27.1252 0002406  87.5693 272.5810 15.05662576 45647
STARLINK-34707          
1 65176U 25175C   26154.60227165  .00006487  00000+0  45317-3 0  9999
2 65176  97.4099  26.6814 0001603  86.6002 273.5408 15.05653121 45562
STARLINK-34967          
1 65177U 25175D   26155.13118676  .00014013  00000+0  97288-3 0  9993
2 65177  97.4106  27.1951 0006205  51.9148 308.2638 15.05652860 45648
STARLINK-34929          
1 65178U 25175E   26155.12840025  .00005008  00000+0  35080-3 0  9999
2 65178  97.4114  27.2068 0001565  91.4843 268.6564 15.05659719 45640
STARLINK-34932          
1 65179U 25175F   26155.12286361  .00008424  00000+0  58691-3 0  9995
2 65179  97.4094  27.2150 0001562  55.8651 304.2725 15.05665238 45647
STARLINK-34862          
1 65180U 25175G   26155.12009513  .00006907  00000+0  48212-3 0  9991
2 65180  97.4098  27.2169 0001770  74.9961 285.1462 15.05661829 45647
STARLINK-34942          
1 65181U 25175H   26155.12563160  .00005677  00000+0  39707-3 0  9997
2 65181  97.4090  27.2063 0001700  92.7718 267.3704 15.05661171 45612
STARLINK-34944          
1 65182U 25175J   26155.11732774  .00005276  00000+0  36937-3 0  9993
2 65182  97.4099  27.2208 0002046  80.7150 279.4309 15.05654666 45643
STARLINK-34939          
1 65183U 25175K   26155.11455934  .00003336  00000+0  23507-3 0  9998
2 65183  97.4108  27.2247 0002424  85.3145 274.8359 15.05657275 45613
STARLINK-34947          
1 65184U 25175L   26155.11178810  .00004640  00000+0  32528-3 0  9996
2 65184  97.4103  27.2272 0001955  92.9962 267.1489 15.05661881 45646
STARLINK-34945          
1 65185U 25175M   26155.10902008  .00005151  00000+0  36065-3 0  9998
2 65185  97.4106  27.2325 0002401 105.7693 254.3799 15.05662009 45645
STARLINK-34965          
1 65186U 25175N   26155.10348705  .00004486  00000+0  31461-3 0  9992
2 65186  97.4087  27.2387 0003255  76.0774 284.0815 15.05660655 45644
STARLINK-34915          
1 65187U 25175P   26155.10626210  .00007527  00000+0  52473-3 0  9998
2 65187  97.4078  27.2323 0002628  91.0323 269.1206 15.05676760 45647
STARLINK-34972          
1 65188U 25175Q   26155.10071620  .00005638  00000+0  39431-3 0  9998
2 65188  97.4071  27.2386 0002388  81.1812 278.9685 15.05660821 45613
STARLINK-34866          
1 65189U 25175R   26155.29732432  .00005063  00000+0  35461-3 0  9995
2 65189  97.4047  27.4321 0003023  84.4270 275.7303 15.05654762 45674
